<?xml version="1.0" encoding="UTF-8"?><gpx creator="Wikiloc - https://www.wikiloc.com" version="1.1" xmlns="http://www.topografix.com/GPX/1/1" xmlns:xsi="http://www.w3.org/2001/XMLSchema-instance" xsi:schemaLocation="http://www.topografix.com/GPX/1/1 http://www.topografix.com/GPX/1/1/gpx.xsd"><metadata><name>Wikiloc - Laguna y Glaciar Huemul</name><author><name>pablitotron</name><link href="https://www.wikiloc.com/wikiloc/user.do?id=989093"><text>pablitotron on Wikiloc</text></link></author><link href="https://www.wikiloc.com/hiking-trails/laguna-y-glaciar-huemul-8347580"><text>Laguna y Glaciar Huemul on Wikiloc</text></link><time>2014-10-30T15:11:46Z</time></metadata><trk><name>Laguna y Glaciar Huemul - Wikiloc</name><cmt></cmt><desc></desc><trkseg><trkpt lat="-49.082872" lon="-72.892039"><ele>504.919</ele><time>2014-10-30T13:51:14Z</time></trkpt><trkpt lat="-49.082884" lon="-72.892207"><ele>505.009</ele><time>2014-10-30T14:03:37Z</time></trkpt><trkpt lat="-49.082904" lon="-72.892241"><ele>505.019</ele><time>2014-10-30T14:04:26Z</time></trkpt><trkpt lat="-49.082926" lon="-72.892266"><ele>505.007</ele><time>2014-10-30T14:04:34Z</time></trkpt><trkpt lat="-49.083048" lon="-72.892483"><ele>505.029</ele><time>2014-10-30T14:04:50Z</time></trkpt><trkpt lat="-49.083068" lon="-72.892501"><ele>505.054</ele><time>2014-10-30T14:04:52Z</time></trkpt><trkpt lat="-49.083200" lon="-72.892661"><ele>506.135</ele><time>2014-10-30T14:05:08Z</time></trkpt><trkpt lat="-49.083318" lon="-72.892766"><ele>506.938</ele><time>2014-10-30T14:05:22Z</time></trkpt><trkpt lat="-49.083411" lon="-72.892867"><ele>507.546</ele><time>2014-10-30T14:05:33Z</time></trkpt><trkpt lat="-49.083509" lon="-72.893041"><ele>508.049</ele><time>2014-10-30T14:05:45Z</time></trkpt><trkpt lat="-49.083510" lon="-72.893072"><ele>508.211</ele><time>2014-10-30T14:05:47Z</time></trkpt><trkpt lat="-49.083435" lon="-72.893252"><ele>509.655</ele><time>2014-10-30T14:06:02Z</time></trkpt><trkpt lat="-49.083401" lon="-72.893297"><ele>510.107</ele><time>2014-10-30T14:06:13Z</time></trkpt><trkpt lat="-49.083390" lon="-72.893395"><ele>510.717</ele><time>2014-10-30T14:06:46Z</time></trkpt><trkpt lat="-49.083299" lon="-72.893777"><ele>512.607</ele><time>2014-10-30T14:07:04Z</time></trkpt><trkpt lat="-49.083171" lon="-72.894018"><ele>513.623</ele><time>2014-10-30T14:07:19Z</time></trkpt><trkpt lat="-49.082981" lon="-72.894195"><ele>514.788</ele><time>2014-10-30T14:07:33Z</time></trkpt><trkpt lat="-49.082824" lon="-72.894386"><ele>516.869</ele><time>2014-10-30T14:07:47Z</time></trkpt><trkpt lat="-49.082686" lon="-72.894473"><ele>517.932</ele><time>2014-10-30T14:07:56Z</time></trkpt><trkpt lat="-49.082524" lon="-72.894675"><ele>520.460</ele><time>2014-10-30T14:08:10Z</time></trkpt><trkpt lat="-49.082299" lon="-72.894821"><ele>522.923</ele><time>2014-10-30T14:08:28Z</time></trkpt><trkpt lat="-49.082277" lon="-72.894855"><ele>523.265</ele><time>2014-10-30T14:08:30Z</time></trkpt><trkpt lat="-49.082146" lon="-72.895001"><ele>524.974</ele><time>2014-10-30T14:08:45Z</time></trkpt><trkpt lat="-49.082018" lon="-72.895220"><ele>527.956</ele><time>2014-10-30T14:09:01Z</time></trkpt><trkpt lat="-49.081891" lon="-72.895393"><ele>529.821</ele><time>2014-10-30T14:09:15Z</time></trkpt><trkpt lat="-49.081769" lon="-72.895481"><ele>530.407</ele><time>2014-10-30T14:09:26Z</time></trkpt><trkpt lat="-49.081612" lon="-72.895505"><ele>530.555</ele><time>2014-10-30T14:09:41Z</time></trkpt><trkpt lat="-49.081552" lon="-72.895482"><ele>530.590</ele><time>2014-10-30T14:10:00Z</time></trkpt><trkpt lat="-49.081513" lon="-72.895504"><ele>530.921</ele><time>2014-10-30T14:10:22Z</time></trkpt><trkpt lat="-49.081461" lon="-72.895634"><ele>531.934</ele><time>2014-10-30T14:10:40Z</time></trkpt><trkpt lat="-49.081386" lon="-72.895742"><ele>532.842</ele><time>2014-10-30T14:10:57Z</time></trkpt><trkpt lat="-49.081241" lon="-72.895872"><ele>533.725</ele><time>2014-10-30T14:11:14Z</time></trkpt><trkpt lat="-49.081097" lon="-72.896045"><ele>534.487</ele><time>2014-10-30T14:11:30Z</time></trkpt><trkpt lat="-49.080983" lon="-72.896142"><ele>534.961</ele><time>2014-10-30T14:11:43Z</time></trkpt><trkpt lat="-49.080962" lon="-72.896153"><ele>535.021</ele><time>2014-10-30T14:11:45Z</time></trkpt><trkpt lat="-49.080788" lon="-72.896389"><ele>536.213</ele><time>2014-10-30T14:12:02Z</time></trkpt><trkpt lat="-49.080654" lon="-72.896573"><ele>537.507</ele><time>2014-10-30T14:12:17Z</time></trkpt><trkpt lat="-49.080564" lon="-72.896776"><ele>539.384</ele><time>2014-10-30T14:12:32Z</time></trkpt><trkpt lat="-49.080508" lon="-72.896881"><ele>540.659</ele><time>2014-10-30T14:12:39Z</time></trkpt><trkpt lat="-49.080356" lon="-72.897051"><ele>543.090</ele><time>2014-10-30T14:12:55Z</time></trkpt><trkpt lat="-49.080333" lon="-72.897072"><ele>543.353</ele><time>2014-10-30T14:12:57Z</time></trkpt><trkpt lat="-49.080191" lon="-72.897211"><ele>545.341</ele><time>2014-10-30T14:13:10Z</time></trkpt><trkpt lat="-49.080072" lon="-72.897357"><ele>547.374</ele><time>2014-10-30T14:13:25Z</time></trkpt><trkpt lat="-49.079947" lon="-72.897364"><ele>547.876</ele><time>2014-10-30T14:13:38Z</time></trkpt><trkpt lat="-49.079854" lon="-72.897347"><ele>547.963</ele><time>2014-10-30T14:13:49Z</time></trkpt><trkpt lat="-49.079817" lon="-72.897268"><ele>547.444</ele><time>2014-10-30T14:13:55Z</time></trkpt><trkpt lat="-49.079763" lon="-72.897209"><ele>547.118</ele><time>2014-10-30T14:14:08Z</time></trkpt><trkpt lat="-49.079685" lon="-72.897164"><ele>547.107</ele><time>2014-10-30T14:14:20Z</time></trkpt><trkpt lat="-49.079624" lon="-72.897147"><ele>547.264</ele><time>2014-10-30T14:14:34Z</time></trkpt><trkpt lat="-49.079588" lon="-72.897158"><ele>547.459</ele><time>2014-10-30T14:14:38Z</time></trkpt><trkpt lat="-49.079536" lon="-72.897141"><ele>547.640</ele><time>2014-10-30T14:14:55Z</time></trkpt><trkpt lat="-49.079469" lon="-72.897115"><ele>547.773</ele><time>2014-10-30T14:15:09Z</time></trkpt><trkpt lat="-49.079359" lon="-72.897010"><ele>547.891</ele><time>2014-10-30T14:15:27Z</time></trkpt><trkpt lat="-49.079336" lon="-72.896976"><ele>547.834</ele><time>2014-10-30T14:15:31Z</time></trkpt><trkpt lat="-49.079300" lon="-72.896808"><ele>547.476</ele><time>2014-10-30T14:15:47Z</time></trkpt><trkpt lat="-49.079240" lon="-72.896766"><ele>547.787</ele><time>2014-10-30T14:16:02Z</time></trkpt><trkpt lat="-49.079106" lon="-72.896715"><ele>548.842</ele><time>2014-10-30T14:16:17Z</time></trkpt><trkpt lat="-49.078942" lon="-72.896715"><ele>550.526</ele><time>2014-10-30T14:16:31Z</time></trkpt><trkpt lat="-49.078805" lon="-72.896672"><ele>551.907</ele><time>2014-10-30T14:16:47Z</time></trkpt><trkpt lat="-49.078673" lon="-72.896624"><ele>553.136</ele><time>2014-10-30T14:17:07Z</time></trkpt><trkpt lat="-49.078548" lon="-72.896657"><ele>554.681</ele><time>2014-10-30T14:17:18Z</time></trkpt><trkpt lat="-49.078471" lon="-72.896786"><ele>555.482</ele><time>2014-10-30T14:17:32Z</time></trkpt><trkpt lat="-49.078360" lon="-72.896963"><ele>556.485</ele><time>2014-10-30T14:17:48Z</time></trkpt><trkpt lat="-49.078281" lon="-72.897118"><ele>557.683</ele><time>2014-10-30T14:18:04Z</time></trkpt><trkpt lat="-49.078238" lon="-72.897214"><ele>558.586</ele><time>2014-10-30T14:18:18Z</time></trkpt><trkpt lat="-49.078168" lon="-72.897315"><ele>559.998</ele><time>2014-10-30T14:18:30Z</time></trkpt><trkpt lat="-49.078109" lon="-72.897375"><ele>561.258</ele><time>2014-10-30T14:18:44Z</time></trkpt><trkpt lat="-49.078026" lon="-72.897488"><ele>563.052</ele><time>2014-10-30T14:19:00Z</time></trkpt><trkpt lat="-49.077937" lon="-72.897559"><ele>565.217</ele><time>2014-10-30T14:19:14Z</time></trkpt><trkpt lat="-49.077851" lon="-72.897631"><ele>567.107</ele><time>2014-10-30T14:19:28Z</time></trkpt><trkpt lat="-49.077801" lon="-72.897667"><ele>568.233</ele><time>2014-10-30T14:19:45Z</time></trkpt><trkpt lat="-49.077754" lon="-72.897707"><ele>569.258</ele><time>2014-10-30T14:20:15Z</time></trkpt><trkpt lat="-49.077696" lon="-72.897717"><ele>570.439</ele><time>2014-10-30T14:20:26Z</time></trkpt><trkpt lat="-49.077630" lon="-72.897837"><ele>571.752</ele><time>2014-10-30T14:20:43Z</time></trkpt><trkpt lat="-49.077552" lon="-72.897818"><ele>573.290</ele><time>2014-10-30T14:20:58Z</time></trkpt><trkpt lat="-49.077446" lon="-72.897838"><ele>575.743</ele><time>2014-10-30T14:21:14Z</time></trkpt><trkpt lat="-49.077339" lon="-72.897845"><ele>578.615</ele><time>2014-10-30T14:21:27Z</time></trkpt><trkpt lat="-49.077280" lon="-72.897858"><ele>580.345</ele><time>2014-10-30T14:21:45Z</time></trkpt><trkpt lat="-49.077156" lon="-72.897874"><ele>583.647</ele><time>2014-10-30T14:22:00Z</time></trkpt><trkpt lat="-49.077046" lon="-72.897861"><ele>586.711</ele><time>2014-10-30T14:22:18Z</time></trkpt><trkpt lat="-49.077032" lon="-72.897863"><ele>587.107</ele><time>2014-10-30T14:23:18Z</time></trkpt><trkpt lat="-49.076975" lon="-72.897842"><ele>588.872</ele><time>2014-10-30T14:23:38Z</time></trkpt><trkpt lat="-49.076888" lon="-72.897915"><ele>590.937</ele><time>2014-10-30T14:23:52Z</time></trkpt><trkpt lat="-49.076793" lon="-72.897990"><ele>593.298</ele><time>2014-10-30T14:24:11Z</time></trkpt><trkpt lat="-49.076725" lon="-72.898129"><ele>594.481</ele><time>2014-10-30T14:24:25Z</time></trkpt><trkpt lat="-49.076639" lon="-72.898194"><ele>596.479</ele><time>2014-10-30T14:24:37Z</time></trkpt><trkpt lat="-49.076555" lon="-72.898285"><ele>598.142</ele><time>2014-10-30T14:24:53Z</time></trkpt><trkpt lat="-49.076488" lon="-72.898364"><ele>599.994</ele><time>2014-10-30T14:25:08Z</time></trkpt><trkpt lat="-49.076427" lon="-72.898435"><ele>602.479</ele><time>2014-10-30T14:25:24Z</time></trkpt><trkpt lat="-49.076383" lon="-72.898566"><ele>605.105</ele><time>2014-10-30T14:25:42Z</time></trkpt><trkpt lat="-49.076313" lon="-72.898674"><ele>608.125</ele><time>2014-10-30T14:25:56Z</time></trkpt><trkpt lat="-49.076323" lon="-72.898812"><ele>609.607</ele><time>2014-10-30T14:26:11Z</time></trkpt><trkpt lat="-49.076303" lon="-72.899002"><ele>612.415</ele><time>2014-10-30T14:26:26Z</time></trkpt><trkpt lat="-49.076237" lon="-72.899108"><ele>615.160</ele><time>2014-10-30T14:26:45Z</time></trkpt><trkpt lat="-49.076208" lon="-72.899217"><ele>617.931</ele><time>2014-10-30T14:27:04Z</time></trkpt><trkpt lat="-49.076168" lon="-72.899334"><ele>622.294</ele><time>2014-10-30T14:27:20Z</time></trkpt><trkpt lat="-49.076105" lon="-72.899462"><ele>627.192</ele><time>2014-10-30T14:27:38Z</time></trkpt><trkpt lat="-49.076068" lon="-72.899511"><ele>629.185</ele><time>2014-10-30T14:27:52Z</time></trkpt><trkpt lat="-49.076083" lon="-72.899559"><ele>630.377</ele><time>2014-10-30T14:28:06Z</time></trkpt><trkpt lat="-49.076030" lon="-72.899579"><ele>631.711</ele><time>2014-10-30T14:28:22Z</time></trkpt><trkpt lat="-49.075996" lon="-72.899622"><ele>633.421</ele><time>2014-10-30T14:28:39Z</time></trkpt><trkpt lat="-49.075958" lon="-72.899790"><ele>638.703</ele><time>2014-10-30T14:28:55Z</time></trkpt><trkpt lat="-49.075940" lon="-72.899816"><ele>639.707</ele><time>2014-10-30T14:29:13Z</time></trkpt><trkpt lat="-49.075895" lon="-72.899842"><ele>641.059</ele><time>2014-10-30T14:32:23Z</time></trkpt><trkpt lat="-49.075833" lon="-72.899798"><ele>640.714</ele><time>2014-10-30T14:32:38Z</time></trkpt><trkpt lat="-49.075771" lon="-72.899836"><ele>642.635</ele><time>2014-10-30T14:32:52Z</time></trkpt><trkpt lat="-49.075702" lon="-72.899917"><ele>645.658</ele><time>2014-10-30T14:33:07Z</time></trkpt><trkpt lat="-49.075578" lon="-72.899969"><ele>648.486</ele><time>2014-10-30T14:33:24Z</time></trkpt><trkpt lat="-49.075487" lon="-72.900003"><ele>650.299</ele><time>2014-10-30T14:33:43Z</time></trkpt><trkpt lat="-49.075497" lon="-72.900092"><ele>652.811</ele><time>2014-10-30T14:34:01Z</time></trkpt><trkpt lat="-49.075431" lon="-72.900126"><ele>654.512</ele><time>2014-10-30T14:34:19Z</time></trkpt><trkpt lat="-49.075417" lon="-72.900174"><ele>656.032</ele><time>2014-10-30T14:34:38Z</time></trkpt><trkpt lat="-49.075378" lon="-72.900209"><ele>657.405</ele><time>2014-10-30T14:34:52Z</time></trkpt><trkpt lat="-49.075330" lon="-72.900219"><ele>658.107</ele><time>2014-10-30T14:35:10Z</time></trkpt><trkpt lat="-49.075309" lon="-72.900199"><ele>657.869</ele><time>2014-10-30T14:35:32Z</time></trkpt><trkpt lat="-49.075266" lon="-72.900127"><ele>656.224</ele><time>2014-10-30T14:35:49Z</time></trkpt><trkpt lat="-49.075263" lon="-72.900164"><ele>657.325</ele><time>2014-10-30T14:36:07Z</time></trkpt><trkpt lat="-49.075217" lon="-72.900117"><ele>656.568</ele><time>2014-10-30T14:36:23Z</time></trkpt><trkpt lat="-49.075202" lon="-72.900037"><ele>654.656</ele><time>2014-10-30T14:36:42Z</time></trkpt><trkpt lat="-49.075164" lon="-72.899948"><ele>653.339</ele><time>2014-10-30T14:36:58Z</time></trkpt><trkpt lat="-49.075104" lon="-72.899898"><ele>653.311</ele><time>2014-10-30T14:38:28Z</time></trkpt><trkpt lat="-49.075079" lon="-72.899872"><ele>653.339</ele><time>2014-10-30T14:38:49Z</time></trkpt><trkpt lat="-49.075005" lon="-72.899927"><ele>655.101</ele><time>2014-10-30T14:39:09Z</time></trkpt><trkpt lat="-49.074904" lon="-72.899953"><ele>659.021</ele><time>2014-10-30T14:39:23Z</time></trkpt><trkpt lat="-49.074814" lon="-72.899951"><ele>662.307</ele><time>2014-10-30T14:39:36Z</time></trkpt><trkpt lat="-49.074746" lon="-72.900004"><ele>665.551</ele><time>2014-10-30T14:39:51Z</time></trkpt><trkpt lat="-49.074706" lon="-72.900106"><ele>668.866</ele><time>2014-10-30T14:40:05Z</time></trkpt><trkpt lat="-49.074680" lon="-72.900188"><ele>671.067</ele><time>2014-10-30T14:40:20Z</time></trkpt><trkpt lat="-49.074704" lon="-72.900214"><ele>670.730</ele><time>2014-10-30T14:40:40Z</time></trkpt><trkpt lat="-49.074723" lon="-72.900338"><ele>672.378</ele><time>2014-10-30T14:40:55Z</time></trkpt><trkpt lat="-49.074753" lon="-72.900412"><ele>672.751</ele><time>2014-10-30T14:41:07Z</time></trkpt><trkpt lat="-49.074745" lon="-72.900446"><ele>673.643</ele><time>2014-10-30T14:41:20Z</time></trkpt><trkpt lat="-49.074731" lon="-72.900457"><ele>674.131</ele><time>2014-10-30T14:41:36Z</time></trkpt><trkpt lat="-49.074721" lon="-72.900466"><ele>674.661</ele><time>2014-10-30T14:41:38Z</time></trkpt><trkpt lat="-49.074628" lon="-72.900493"><ele>677.407</ele><time>2014-10-30T14:41:52Z</time></trkpt><trkpt lat="-49.074559" lon="-72.900518"><ele>679.607</ele><time>2014-10-30T14:42:07Z</time></trkpt><trkpt lat="-49.074488" lon="-72.900544"><ele>681.791</ele><time>2014-10-30T14:42:19Z</time></trkpt><trkpt lat="-49.074415" lon="-72.900547"><ele>683.536</ele><time>2014-10-30T14:42:33Z</time></trkpt><trkpt lat="-49.074406" lon="-72.900554"><ele>683.897</ele><time>2014-10-30T14:42:50Z</time></trkpt><trkpt lat="-49.074342" lon="-72.900596"><ele>685.730</ele><time>2014-10-30T14:43:05Z</time></trkpt><trkpt lat="-49.074261" lon="-72.900631"><ele>687.958</ele><time>2014-10-30T14:43:35Z</time></trkpt><trkpt lat="-49.074235" lon="-72.900710"><ele>689.061</ele><time>2014-10-30T15:11:46Z</time></trkpt></trkseg></trk></gpx>